O3B MPOWER F1           
1 54755U 22174A   24275.31086392 -.00000026  00000+0  00000+0 0  9991
2 54755   0.0530 345.7774 0006482 196.1633 226.6079  5.00113599 34149
